LEO EXPRESS 1           
1 58301U 23174AX  26068.76789509  .00017303  00000+0  49741-3 0  9998
2 58301  97.5222 152.4092 0078735 115.9210 245.0174 15.32756831129655
STARLINK-31678          
1 59493U 24071K   26068.14842190 -.00000025  00000+0  86252-5 0  9990
2 59493  43.0011 350.5180 0000846 274.2643  85.8112 15.27584729106854
